[{"OBJECT_NAME":"KUIPER-00145","OBJECT_ID":"2025-217F","EPOCH":"2026-03-09T06:48:00.136224","MEAN_MOTION":14.79949289,"ECCENTRICITY":7.642e-5,"INCLINATION":51.9004,"RA_OF_ASC_NODE":39.9007,"ARG_OF_PERICENTER":85.7448,"MEAN_ANOMALY":274.3601,"EPHEMERIS_TYPE":0,"CLASSIFICATION_TYPE":"U","NORAD_CAT_ID":65767,"ELEMENT_SET_NO":999,"REV_AT_EPOCH":2488,"BSTAR":0.00075419051,"MEAN_MOTION_DOT":5.535e-5,"MEAN_MOTION_DDOT":0},{"OBJECT_NAME":"FENGYUN 1C DEB","OBJECT_ID":"1999-025LG","EPOCH":"2026-03-09T12:14:50.254368","MEAN_MOTION":14.67697961,"ECCENTRICITY":0.01210461,"INCLINATION":99.4046,"RA_OF_ASC_NODE":267.5239,"ARG_OF_PERICENTER":24.1926,"MEAN_ANOMALY":28.9506,"EPHEMERIS_TYPE":0,"CLASSIFICATION_TYPE":"U","NORAD_CAT_ID":29982,"ELEMENT_SET_NO":999,"REV_AT_EPOCH":1556,"BSTAR":0.00049805188,"MEAN_MOTION_DOT":3.096e-5,"MEAN_MOTION_DDOT":0}]
